{"_default": { "12": {"norad_id": "43111", "name": "CARTOSAT 2F", "tle1": "1 43111U 18004A   26161.62180686  .00006542  00000-0  31430-3 0  9997", "tle2": "2 43111  97.4795 221.3206 0000386 309.6447  50.4754 15.19168749466337", "object_type": "PAYLOAD", "criticality_score": 9.0, "last_updated": "2026-06-11T12:15:23.970987+00:00", "maneuver_count": 0}, "44": {"norad_id": "42847", "name": "CORVUS BC1", "tle1": "1 42847U 17042Y   26160.94930317  .00002939  00000-0  20311-3 0  9993", "tle2": "2 42847  97.4081 323.3911 0013225 111.4047 248.8593 15.06416487486008", "object_type": "PAYLOAD", "criticality_score": 9.0, "last_updated": "2026-06-11T12:15:23.970987+00:00", "maneuver_count": 0}, "45": {"norad_id": "42828", "name": "NORSAT 2", "tle1": "1 42828U 17042D   26160.99229472  .00009549  00000-0  42302-3 0  9998", "tle2": "2 42828  97.4036 334.5486 0010849  79.7911 280.4548 15.21787997486649", "object_type": "PAYLOAD", "criticality_score": 9.0, "last_updated": "2026-06-11T12:15:23.970987+00:00", "maneuver_count": 0}, "46": {"norad_id": "42767", "name": "CARTOSAT 2E", "tle1": "1 42767U 17036C   26161.58983361  .00005125  00000-0  24622-3 0  9994", "tle2": "2 42767  97.4278 221.5013 0002870 350.4086   9.7093 15.19272646497148", "object_type": "PAYLOAD", "criticality_score": 9.0, "last_updated": "2026-06-11T12:15:23.970987+00:00", "maneuver_count": 0}, "80": {"norad_id": "43017", "name": "AO-91", "tle1": "1 43017U 17073E   26161.59307599  .00007911  00000-0  34602-3 0  9992", "tle2": "2 43017  97.4719  28.9430 0150575 352.0804   7.8050 15.12608951464399", "object_type": "PAYLOAD", "criticality_score": 9.0, "last_updated": "2026-06-11T12:15:23.970987+00:00", "maneuver_count": 0}, "81": {"norad_id": "43012", "name": "CZ-4C R/B", "tle1": "1 43012U 17072C   26161.52476085  .00000461  00000-0  99863-4 0  9990", "tle2": "2 43012  98.5788 269.3065 0122662 171.8969 188.4250 14.58775567455667", "object_type": "ROCKET_BODY", "criticality_score": 9.0, "last_updated": "2026-06-11T12:15:23.970987+00:00", "maneuver_count": 0}, "82": {"norad_id": "42829", "name": "TECHNOSAT", "tle1": "1 42829U 17042E   26161.33432075  .00003016  00000-0  21642-3 0  9990", "tle2": "2 42829  97.4262 319.2540 0018783 115.9185 244.3980 15.04911814485672", "object_type": "PAYLOAD", "criticality_score": 9.0, "last_updated": "2026-06-11T12:15:23.970987+00:00", "maneuver_count": 0}, "83": {"norad_id": "42794", "name": "DSAT", "tle1": "1 42794U 17036AF  26160.90774742  .00005072  00000-0  23927-3 0  9998", "tle2": "2 42794  97.5551 139.8429 0081689 185.6590 174.3729 15.16960688489758", "object_type": "PAYLOAD", "criticality_score": 9.0, "last_updated": "2026-06-11T12:15:23.970987+00:00", "maneuver_count": 0}, "107": {"norad_id": "42831", "name": "FLYING LAPTOP", "tle1": "1 42831U 17042G   26161.58632163  .00003510  00000-0  27764-3 0  9990", "tle2": "2 42831  97.4659 317.3750 0019266 143.2925 216.9624 15.01103306485463", "object_type": "PAYLOAD", "criticality_score": 9.0, "last_updated": "2026-06-11T12:15:23.970987+00:00", "maneuver_count": 0}, "108": {"norad_id": "41948", "name": "CARTOSAT 2D", "tle1": "1 41948U 17008A   26161.63808451  .00006868  00000-0  32861-3 0  9994", "tle2": "2 41948  97.4111 221.0666 0003644 259.5935 100.4889 15.19288751516581", "object_type": "PAYLOAD", "criticality_score": 9.0, "last_updated": "2026-06-11T12:15:23.970987+00:00", "maneuver_count": 0}, "150": {"norad_id": "42846", "name": "CORVUS BC2", "tle1": "1 42846U 17042X   26160.88744001  .00002553  00000-0  17769-3 0  9993", "tle2": "2 42846  97.4054 322.5225 0014208 132.8249 227.4176 15.06248195485962", "object_type": "PAYLOAD", "criticality_score": 9.0, "last_updated": "2026-06-11T12:15:23.970987+00:00", "maneuver_count": 0}, "180": {"norad_id": "43016", "name": "MAKERSAT 0", "tle1": "1 43016U 17073D   26161.64829645  .00016498  00000-0  45163-3 0  9992", "tle2": "2 43016  97.4634  44.1166 0105662 296.7150  62.3306 15.31868325465468", "object_type": "PAYLOAD", "criticality_score": 9.0, "last_updated": "2026-06-11T12:15:23.970987+00:00", "maneuver_count": 0}, "189": {"norad_id": "41914", "name": "JILIN-1-03", "tle1": "1 41914U 17002B   26161.59931769  .00011570  00000-0  27849-3 0  9991", "tle2": "2 41914  97.1950 168.7772 0005948 175.0355 185.0953 15.41416418520847", "object_type": "PAYLOAD", "criticality_score": 9.0, "last_updated": "2026-06-11T12:15:23.970987+00:00", "maneuver_count": 0}, "191": {"norad_id": "43022", "name": "JILIN-01-04", "tle1": "1 43022U 17074A   26161.59844329  .00012313  00000-0  28814-3 0  9996", "tle2": "2 43022  97.4847 271.0365 0003580 200.6263 159.4840 15.42276051473256", "object_type": "PAYLOAD", "criticality_score": 9.0, "last_updated": "2026-06-11T12:15:23.970987+00:00", "maneuver_count": 0}, "192": {"norad_id": "43023", "name": "JILIN-01-05", "tle1": "1 43023U 17074B   26161.59733150  .00007332  00000-0  22695-3 0  9992", "tle2": "2 43023  97.4854 267.6632 0003894 242.4547 117.6300 15.33772229472995", "object_type": "PAYLOAD", "criticality_score": 9.0, "last_updated": "2026-06-11T12:15:23.970987+00:00", "maneuver_count": 0}, "193": {"norad_id": "43024", "name": "JILIN-01-06", "tle1": "1 43024U 17074C   26161.56818785  .00004914  00000-0  15366-3 0  9998", "tle2": "2 43024  97.4782 264.6515 0005333 259.8301 100.2340 15.33620758472826", "object_type": "PAYLOAD", "criticality_score": 9.0, "last_updated": "2026-06-11T12:15:23.970987+00:00", "maneuver_count": 0}, "217": {"norad_id": "43010", "name": "FENGYUN 3D", "tle1": "1 43010U 17072A   26161.59320192 -.00000238  00000-0 -90687-4 0  9991", "tle2": "2 43010  99.0123 135.8962 0002657  72.5601 287.5865 14.19737266444053", "object_type": "PAYLOAD", "criticality_score": 9.0, "last_updated": "2026-06-11T12:15:23.970987+00:00", "maneuver_count": 0}, "221": {"norad_id": "43013", "name": "NOAA 20", "tle1": "1 43013U 17073A   26161.58707139  .00000042  00000-0  41119-4 0  9991", "tle2": "2 43013  98.7772 101.1084 0000390  51.3333 308.7878 14.19510532443539", "object_type": "PAYLOAD", "criticality_score": 9.0, "last_updated": "2026-06-11T12:15:23.970987+00:00", "maneuver_count": 0}, "232": {"norad_id": "42840", "name": "LEMUR 2 FURIAUS", "tle1": "1 42840U 17042R   26161.41040731  .00016426  00000-0  56652-3 0  9994", "tle2": "2 42840  97.3771 340.0388 0008501  89.8327 270.3888 15.30030493487172", "object_type": "PAYLOAD", "criticality_score": 9.0, "last_updated": "2026-06-11T12:15:23.970987+00:00", "maneuver_count": 0}, "239": {"norad_id": "42835", "name": "WNISAT 1R", "tle1": "1 42835U 17042L   26161.16229609  .00002156  00000-0  16998-3 0  9997", "tle2": "2 42835  97.4830 317.5364 0010304 171.3310 188.8095 15.01732532485452", "object_type": "PAYLOAD", "criticality_score": 9.0, "last_updated": "2026-06-11T12:15:23.970987+00:00", "maneuver_count": 0}, "293": {"norad_id": "43005", "name": "MOHAMMED VI-A", "tle1": "1 43005U 17070A   26161.63985213  .00001173  00000-0  17346-3 0  9996", "tle2": "2 43005  97.9555 234.0614 0001504  73.2732 286.8643 14.77063263463018", "object_type": "PAYLOAD", "criticality_score": 9.0, "last_updated": "2026-06-11T12:15:23.970987+00:00", "maneuver_count": 0}, "348": {"norad_id": "43072", "name": "IRIDIUM 116", "tle1": "1 43072U 17083C   26161.51721251  .00000045  00000-0  90491-5 0  9992", "tle2": "2 43072  86.3959 324.7907 0001890  95.1571 264.9840 14.34217501443211", "object_type": "PAYLOAD", "criticality_score": 9.0, "last_updated": "2026-06-11T12:15:23.970987+00:00", "maneuver_count": 0}, "349": {"norad_id": "42803", "name": "IRIDIUM 113", "tle1": "1 42803U 17039A   26161.54258379  .00000050  00000-0  10769-4 0  9998", "tle2": "2 42803  86.3966 324.9571 0002313  89.7987 270.3474 14.34217577470239", "object_type": "PAYLOAD", "criticality_score": 9.0, "last_updated": "2026-06-11T12:15:23.970987+00:00", "maneuver_count": 0}, "350": {"norad_id": "43073", "name": "IRIDIUM 130", "tle1": "1 43073U 17083D   26161.48549844 -.00000108  00000-0 -45525-4 0  9994", "tle2": "2 43073  86.3964 325.0788 0001845  88.6959 271.4448 14.34217448443156", "object_type": "PAYLOAD", "criticality_score": 9.0, "last_updated": "2026-06-11T12:15:23.970987+00:00", "maneuver_count": 0}, "419": {"norad_id": "43099", "name": "SUPERVIEW-1 03", "tle1": "1 43099U 18002A   26161.59939949  .00015838  00000-0  39629-3 0  9996", "tle2": "2 43099  97.3133 246.4481 0046795 203.1714 156.7423 15.39032629467354", "object_type": "PAYLOAD", "criticality_score": 9.0, "last_updated": "2026-06-11T12:15:23.970987+00:00", "maneuver_count": 0}, "432": {"norad_id": "41898", "name": "TANSAT", "tle1": "1 41898U 16081A   26161.60052738  .00000381  00000-0  89790-4 0  9992", "tle2": "2 41898  98.5366 161.6635 0020052 333.3961  26.6208 14.59945850503668", "object_type": "PAYLOAD", "criticality_score": 9.0, "last_updated": "2026-06-11T12:15:23.970987+00:00", "maneuver_count": 0}, "437": {"norad_id": "42837", "name": "LEMUR 2 GREENBERG", "tle1": "1 42837U 17042N   26161.48675735  .00014150  00000-0  47226-3 0  9994", "tle2": "2 42837  97.3820 342.1441 0009187  37.1811 323.0064 15.31122099487369", "object_type": "PAYLOAD", "criticality_score": 9.0, "last_updated": "2026-06-11T12:15:23.970987+00:00", "maneuver_count": 0}, "499": {"norad_id": "43146", "name": "LKW-3", "tle1": "1 43146U 18006A   26161.60097193  .00012689  00000-0  37450-3 0  9992", "tle2": "2 43146  97.6603 321.9195 0002561 353.8679   6.2532 15.35123500467703", "object_type": "PAYLOAD", "criticality_score": 9.0, "last_updated": "2026-06-11T12:15:23.970987+00:00", "maneuver_count": 0}, "506": {"norad_id": "43080", "name": "LKW-2", "tle1": "1 43080U 17084A   26161.60358402  .00007733  00000-0  30105-3 0  9991", "tle2": "2 43080  97.1198 201.7076 0000229 213.1086 147.0139 15.26255155470686", "object_type": "PAYLOAD", "criticality_score": 9.0, "last_updated": "2026-06-11T12:15:23.970987+00:00", "maneuver_count": 0}, "527": {"norad_id": "42954", "name": "VRSS-2", "tle1": "1 42954U 17060A   26161.63429083  .00000586  00000-0  81551-4 0  9992", "tle2": "2 42954  97.6519 199.6564 0018362 118.3993 241.9073 14.81183272467489", "object_type": "PAYLOAD", "criticality_score": 9.0, "last_updated": "2026-06-11T12:15:23.970987+00:00", "maneuver_count": 0}}}